{
  "norad_id": 60414,
  "name": "STARLINK-32234",
  "history": [
    {
      "epoch": "2026-03-28T14:21:28.520064",
      "apogee_km": 476.08486423977774,
      "perigee_km": 474.3975625236426,
      "latitude_deg": 42.87081395354136,
      "longitude_deg": -81.16831103991717,
      "semi_major_axis_km": 6853.37821338171,
      "eccentricity": 0.0001231,
      "inclination_deg": 53.1614,
      "raan_deg": 154.8963,
      "arg_perigee_deg": 69.6926,
      "mean_anomaly_deg": 290.4207,
      "mean_motion_rev_day": 15.30191244
    }
  ]
}